norad_id,name,regime,epoch,line1,line2,inclination,eccentricity,mean_motion,raan,arg_pericenter,mean_anomaly
20083,RADUGA 1-1,EGO,16278.37532630,1 20083U 89048A   16278.37532630 -.00000163  00000-0  00000+0 0  8578\,2 20083  15.4012   5.1990 0015233  64.1828  20.0890  0.98708270 96280,15.4012,0.0015233,0.9870827,5.199,64.1828,20.089
20083,RADUGA 1-1,EGO,16279.23864832,1 20083U 89048A   16279.23864832 -.00000142 +00000-0 +00000-0 0 0001\,2 20083 015.4013 005.1899 0015215 064.1038 326.9599 00.9870796609631,15.4013,0.0015215,0.98707966,5.1899,64.1038,326.9599
20083,RADUGA 1-1,EGO,16282.17727498,1 20083U 89048A   16282.17727498 -.00000071  00000-0  00000+0 0  8588\,2 20083  15.4016   5.1593 0015181  63.8438 291.4892  0.98707059 96323,15.4016,0.0015181,0.98707059,5.1593,63.8438,291.4892
20083,RADUGA 1-1,EGO,16285.36766640,1 20083U 89048A   16285.36766640 -.00000010  00000-0  00000+0 0  8598\,2 20083  15.4019   5.1261 0015183  63.6049 345.4574  0.98706541 96351,15.4019,0.0015183,0.98706541,5.1261,63.6049,345.4574
20083,RADUGA 1-1,EGO,16287.54742775,1 20083U 89048A   16287.54742775  .00000011  00000-0  00000+0 0  8605\,2 20083  15.4020   5.1034 0015198  63.5322  40.1235  0.98706561 96388,15.402,0.0015198,0.98706561,5.1034,63.5322,40.1235
20083,RADUGA 1-1,EGO,16288.51402909,1 20083U 89048A   16288.51402909 +.00000013 +00000-0 +00000-0 0 0001\,2 20083 015.4021 005.0933 0015204 063.5318 023.6129 00.9870666909640,15.4021,0.0015204,0.98706669,5.0933,63.5318,23.6129
20083,RADUGA 1-1,EGO,16289.60370696,1 20083U 89048A   16289.60370696  .00000010  00000-0  00000+0 0  8613\,2 20083  15.4022   5.0819 0015205  63.5331  50.8372  0.98706857 96400,15.4022,0.0015205,0.98706857,5.0819,63.5331,50.8372
20083,RADUGA 1-1,EGO,16291.51999959,1 20083U 89048A   16291.51999959 -.00000009 +00000-0 +00000-0 0 0001\,2 20083 015.4024 005.0618 0015204 063.6055 011.7368 00.9870735609643,15.4024,0.0015204,0.98707356,5.0618,63.6055,11.7368
20083,RADUGA 1-1,EGO,16293.24169881,1 20083U 89048A   16293.24169881 -.00000041  00000-0  00000+0 0  8626\,2 20083  15.4025   5.0439 0015198  63.6881 263.4791  0.98707952 96430,15.4025,0.0015198,0.98707952,5.0439,63.6881,263.4791
20083,RADUGA 1-1,EGO,16294.46193405,1 20083U 89048A   16294.46193405 -.00000069 +00000-0 +00000-0 0 0001\,2 20083 015.4026 005.0312 0015175 063.7409 337.0524 00.9870842009646,15.4026,0.0015175,0.9870842,5.0312,63.7409,337.0524
20083,RADUGA 1-1,EGO,16296.33376666,1 20083U 89048A   16296.33376666 -.00000119  00000-0  00000+0 0  8637\,2 20083  15.4027   5.0118 0015142  63.8062 282.1710  0.98709174 96468,15.4027,0.0015142,0.98709174,5.0118,63.8062,282.171
20083,RADUGA 1-1,EGO,16297.37619065,1 20083U 89048A   16297.37619065 -.00000148 +00000-0 +00000-0 0 0001\,2 20083 015.4028 005.0010 0015115 063.8272 292.5932 00.9870957709648,15.4028,0.0015115,0.98709577,5.001,63.8272,292.5932
20083,RADUGA 1-1,EGO,16298.49617493,1 20083U 89048A   16298.49617493 -.00000178  00000-0  00000+0 0  8648\,2 20083  15.4029   4.9894 0015090  63.8795 330.5476  0.98709962 96488,15.4029,0.001509,0.98709962,4.9894,63.8795,330.5476
20083,RADUGA 1-1,EGO,16299.61910307,1 20083U 89048A   16299.61910307 -.00000206 +00000-0 +00000-0 0 0001\,2 20083 015.4030 004.9778 0015057 063.8845 009.5970 00.9871029009651,15.403,0.0015057,0.9871029,4.9778,63.8845,9.597
20083,RADUGA 1-1,EGO,16300.42177779,1 20083U 89048A   16300.42177779 -.00000224 +00000-0 +00000-0 0 0001\,2 20083 015.4030 004.9695 0015039 063.8418 294.8866 00.9871048209651,15.403,0.0015039,0.98710482,4.9695,63.8418,294.8866
20083,RADUGA 1-1,EGO,16301.46225591,1 20083U 89048A   16301.46225591 -.00000244  00000-0  00000+0 0  8659\,2 20083  15.4031   4.9588 0015006  63.7862 304.6982  0.98710664 96511,15.4031,0.0015006,0.98710664,4.9588,63.7862,304.6982
20083,RADUGA 1-1,EGO,16301.59492271,1 20083U 89048A   16301.59492271 -.00000246 +00000-0 +00000-0 0 0001\,2 20083 015.4031 004.9574 0014993 063.7507 351.8799 00.9871068709653,15.4031,0.0014993,0.98710687,4.9574,63.7507,351.8799
20083,RADUGA 1-1,EGO,16302.50095880,1 20083U 89048A   16302.50095880 -.00000259 +00000-0 +00000-0 0 0001\,2 20083 015.4032 004.9481 0014969 063.6735 313.9364 00.9871075309654,15.4032,0.0014969,0.98710753,4.9481,63.6735,313.9364
20083,RADUGA 1-1,EGO,16303.47934529,1 20083U 89048A   16303.47934529 -.00000268  00000-0  00000+0 0  8667\,2 20083  15.4032   4.9380 0014945  63.5831 301.7169  0.98710735 96533,15.4032,0.0014945,0.98710735,4.938,63.5831,301.7169
20083,RADUGA 1-1,EGO,16304.47632075,1 20083U 89048A   16304.47632075 -.00000271 +00000-0 +00000-0 0 0001\,2 20083 015.4033 004.9278 0014918 063.4650 296.1308 00.9871062309655,15.4033,0.0014918,0.98710623,4.9278,63.465,296.1308
20083,RADUGA 1-1,EGO,16305.86820126,1 20083U 89048A   16305.86820126 -.00000266  00000-0  00000+0 0  8678\,2 20083  15.4034   4.9135 0014888  63.3080  70.9207  0.98710329 96563,15.4034,0.0014888,0.98710329,4.9135,63.308,70.9207
20083,RADUGA 1-1,EGO,16306.87584019,1 20083U 89048A   16306.87584019 -.00000256 +00000-0 +00000-0 0 0001\,2 20083 015.4035 004.9031 0014876 063.1940 069.1186 00.9871002209658,15.4035,0.0014876,0.98710022,4.9031,63.194,69.1186
20083,RADUGA 1-1,EGO,16308.52288750,1 20083U 89048A   16308.52288750 -.00000226  00000-0  00000+0 0  8682\,2 20083  15.4036   4.8861 0014860  62.9949 294.6254  0.98709387 96580,15.4036,0.001486,0.98709387,4.8861,62.9949,294.6254
20083,RADUGA 1-1,EGO,16312.58149661,1 20083U 89048A   16312.58149661 -.00000115  00000-0  00000+0 0  8698\,2 20083  15.4038   4.8443 0014875  62.5928 297.3082  0.98707480 96623,15.4038,0.0014875,0.9870748,4.8443,62.5928,297.3082
20083,RADUGA 1-1,EGO,16313.95733483,1 20083U 89048A   16313.95733483 -.00000075 +00000-0 +00000-0 0 0001\,2 20083 015.4039 004.8300 0014895 062.4903 066.3273 00.9870690309665,15.4039,0.0014895,0.98706903,4.83,62.4903,66.3273
20083,RADUGA 1-1,EGO,16314.81972887,1 20083U 89048A   16314.81972887 -.00000052  00000-0  00000+0 0  8702\,2 20083  15.4039   4.8211 0014905  62.4533  12.8226  0.98706594 96649,15.4039,0.0014905,0.98706594,4.8211,62.4533,12.8226
20083,RADUGA 1-1,EGO,16316.80081699,1 20083U 89048A   16316.80081699 -.00000009 +00000-0 +00000-0 0 0001\,2 20083 015.4040 004.8006 0014929 062.4519 356.8157 00.9870610809668,15.404,0.0014929,0.98706108,4.8006,62.4519,356.8157
20083,RADUGA 1-1,EGO,16317.00369350,1 20083U 89048A   16317.00369350 -.00000005  00000-0  00000+0 0  8710\,2 20083  15.4040   4.7985 0014943  62.4963  68.8652  0.98706093 96678,15.404,0.0014943,0.98706093,4.7985,62.4963,68.8652
20083,RADUGA 1-1,EGO,16318.58891137,1 20083U 89048A   16318.58891137 +.00000013 +00000-0 +00000-0 0 0001\,2 20083 015.4041 004.7821 0014962 062.5900 272.0866 00.9870598909669,15.4041,0.0014962,0.98705989,4.7821,62.59,272.0866
20083,RADUGA 1-1,EGO,16319.02880602,1 20083U 89048A   16319.02880602  .00000016  00000-0  00000+0 0  8724\,2 20083  15.4041   4.7775 0014963  62.5874  68.4080  0.98706007 96698,15.4041,0.0014963,0.98706007,4.7775,62.5874,68.408
20083,RADUGA 1-1,EGO,16321.62960255,1 20083U 89048A   16321.62960255  .00000009  00000-0  00000+0 0  8739\,2 20083  15.4042   4.7506 0014959  62.6870 272.5164  0.98706470 96711,15.4042,0.0014959,0.9870647,4.7506,62.687,272.5164
20083,RADUGA 1-1,EGO,16322.68028178,1 20083U 89048A   16322.68028178 -.00000004 +00000-0 +00000-0 0 0001\,2 20083 015.4043 004.7398 0014946 062.7135 285.8566 00.9870681209673,15.4043,0.0014946,0.98706812,4.7398,62.7135,285.8566
20083,RADUGA 1-1,EGO,16322.95715317,1 20083U 89048A   16322.95715317 -.00000008 +00000-0 +00000-0 0 0001\,2 20083 015.4043 004.7369 0014936 062.7087 024.2501 00.9870691809674,15.4043,0.0014936,0.98706918,4.7369,62.7087,24.2501
20083,RADUGA 1-1,EGO,16324.81990575,1 20083U 89048A   16324.81990575 -.00000044  00000-0  00000+0 0  8764\,2 20083  15.4043   4.7176 0014908  62.7483 326.1572  0.98707669 96743,15.4043,0.0014908,0.98707669,4.7176,62.7483,326.1572
20083,RADUGA 1-1,EGO,16325.76058581,1 20083U 89048A   16325.76058581 -.00000065 +00000-0 +00000-0 0 0001\,2 20083 015.4044 004.7080 0014890 062.7311 300.4556 00.9870807609677,15.4044,0.001489,0.98708076,4.708,62.7311,300.4556
20083,RADUGA 1-1,EGO,16326.94181914,1 20083U 89048A   16326.94181914 -.00000094 +00000-0 +00000-0 0 0001\,2 20083 015.4044 004.6958 0014859 062.6986 000.2550 00.9870858909678,15.4044,0.0014859,0.98708589,4.6958,62.6986,0.255
20083,RADUGA 1-1,EGO,16327.80487591,1 20083U 89048A   16327.80487591 -.00000116 +00000-0 +00000-0 0 0001\,2 20083 015.4044 004.6869 0014844 062.6502 307.0035 00.9870895209679,15.4044,0.0014844,0.98708952,4.6869,62.6502,307.0035
20083,RADUGA 1-1,EGO,16328.80078631,1 20083U 89048A   16328.80078631 -.00000140 +00000-0 +00000-0 0 0001\,2 20083 015.4045 004.6767 0014822 062.5679 300.9984 00.9870932709680,15.4045,0.0014822,0.98709327,4.6767,62.5679,300.9984
20083,RADUGA 1-1,EGO,16331.12224903,1 20083U 89048A   16331.12224903 -.00000190  00000-0  00000+0 0  8785\,2 20083  15.4045   4.6529 0014777  62.3606  46.1784  0.98709981 96814,15.4045,0.0014777,0.98709981,4.6529,62.3606,46.1784
20083,RADUGA 1-1,EGO,16334.35486689,1 20083U 89048A   16334.35486689 -.00000229  00000-0  00000+0 0  8798\,2 20083  15.4046   4.6198 0014755  62.0019 115.3104  0.98710243 96849,15.4046,0.0014755,0.98710243,4.6198,62.0019,115.3104
20083,RADUGA 1-1,EGO,16335.81511949,1 20083U 89048A   16335.81511949 -.00000233 +00000-0 +00000-0 0 0001\,2 20083 015.4046 004.6048 0014757 061.8543 274.3863 00.9871009409686,15.4046,0.0014757,0.98710094,4.6048,61.8543,274.3863
20083,RADUGA 1-1,EGO,16338.21718683,1 20083U 89048A   16338.21718683 -.00000220  00000-0  00000+0 0  8802\,2 20083  15.4047   4.5802 0014786  61.5822  48.2768  0.98709582 96889,15.4047,0.0014786,0.98709582,4.5802,61.5822,48.2768
20083,RADUGA 1-1,EGO,16340.38085038,1 20083U 89048A   16340.38085038 -.00000190  00000-0  00000+0 0  8811\,2 20083  15.4047   4.5580 0014823  61.3886  97.3633  0.98708905 96909,15.4047,0.0014823,0.98708905,4.558,61.3886,97.3633
